[{"OBJECT_NAME":"FLOCK 4BE-24","OBJECT_ID":"2024-149AP","EPOCH":"2026-04-05T19:11:35.946240","MEAN_MOTION":15.404462,"ECCENTRICITY":0.0004789,"INCLINATION":97.3725,"RA_OF_ASC_NODE":179.4829,"ARG_OF_PERICENTER":172.8121,"MEAN_ANOMALY":187.3195,"EPHEMERIS_TYPE":0,"CLASSIFICATION_TYPE":"U","NORAD_CAT_ID":60505,"ELEMENT_SET_NO":999,"REV_AT_EPOCH":9121,"BSTAR":0.00063359,"MEAN_MOTION_DOT":0.0002563,"MEAN_MOTION_DDOT":0},{"OBJECT_NAME":"TANAGER-1","OBJECT_ID":"2024-149AR","EPOCH":"2026-04-05T17:25:41.675520","MEAN_MOTION":15.43842616,"ECCENTRICITY":0.000731,"INCLINATION":97.3719,"RA_OF_ASC_NODE":189.4725,"ARG_OF_PERICENTER":196.1745,"MEAN_ANOMALY":163.9271,"EPHEMERIS_TYPE":0,"CLASSIFICATION_TYPE":"U","NORAD_CAT_ID":60507,"ELEMENT_SET_NO":999,"REV_AT_EPOCH":9185,"BSTAR":0.00044906,"MEAN_MOTION_DOT":0.00020315,"MEAN_MOTION_DDOT":0},{"OBJECT_NAME":"FLOCK 4BE-29","OBJECT_ID":"2024-149AT","EPOCH":"2026-04-05T19:16:36.571584","MEAN_MOTION":15.41775008,"ECCENTRICITY":0.0003286,"INCLINATION":97.3811,"RA_OF_ASC_NODE":180.7202,"ARG_OF_PERICENTER":174.8704,"MEAN_ANOMALY":185.2577,"EPHEMERIS_TYPE":0,"CLASSIFICATION_TYPE":"U","NORAD_CAT_ID":60509,"ELEMENT_SET_NO":999,"REV_AT_EPOCH":9125,"BSTAR":0.00060552,"MEAN_MOTION_DOT":0.00025587,"MEAN_MOTION_DDOT":0},{"OBJECT_NAME":"FLOCK 4BE-2","OBJECT_ID":"2024-149AV","EPOCH":"2026-04-05T04:38:04.172640","MEAN_MOTION":15.45922349,"ECCENTRICITY":0.00043904,"INCLINATION":97.3823,"RA_OF_ASC_NODE":180.8224,"ARG_OF_PERICENTER":178.022,"MEAN_ANOMALY":182.1048,"EPHEMERIS_TYPE":0,"CLASSIFICATION_TYPE":"U","NORAD_CAT_ID":60511,"ELEMENT_SET_NO":999,"REV_AT_EPOCH":9120,"BSTAR":0.0011695048,"MEAN_MOTION_DOT":0.00057162,"MEAN_MOTION_DDOT":0},{"OBJECT_NAME":"FLOCK 4BE-13","OBJECT_ID":"2024-149AW","EPOCH":"2026-04-05T17:57:18.095040","MEAN_MOTION":15.39932352,"ECCENTRICITY":0.0004862,"INCLINATION":97.3728,"RA_OF_ASC_NODE":179.5158,"ARG_OF_PERICENTER":158.6692,"MEAN_ANOMALY":201.4758,"EPHEMERIS_TYPE":0,"CLASSIFICATION_TYPE":"U","NORAD_CAT_ID":60512,"ELEMENT_SET_NO":999,"REV_AT_EPOCH":9121,"BSTAR":0.00049647,"MEAN_MOTION_DOT":0.00019713,"MEAN_MOTION_DDOT":0},{"OBJECT_NAME":"FLOCK 4BE-27","OBJECT_ID":"2024-149AX","EPOCH":"2026-04-05T17:07:23.630016","MEAN_MOTION":15.33216802,"ECCENTRICITY":0.0004095,"INCLINATION":97.3834,"RA_OF_ASC_NODE":177.5976,"ARG_OF_PERICENTER":181.8735,"MEAN_ANOMALY":178.2493,"EPHEMERIS_TYPE":0,"CLASSIFICATION_TYPE":"U","NORAD_CAT_ID":60513,"ELEMENT_SET_NO":999,"REV_AT_EPOCH":9103,"BSTAR":0.00038462,"MEAN_MOTION_DOT":0.00012275,"MEAN_MOTION_DDOT":0},{"OBJECT_NAME":"FLOCK 4BE-9","OBJECT_ID":"2024-149AY","EPOCH":"2026-04-05T18:08:34.288224","MEAN_MOTION":15.38657136,"ECCENTRICITY":0.0003466,"INCLINATION":97.38,"RA_OF_ASC_NODE":179.4457,"ARG_OF_PERICENTER":174.7497,"MEAN_ANOMALY":185.3785,"EPHEMERIS_TYPE":0,"CLASSIFICATION_TYPE":"U","NORAD_CAT_ID":60514,"ELEMENT_SET_NO":999,"REV_AT_EPOCH":9117,"BSTAR":0.00054637,"MEAN_MOTION_DOT":0.00020815,"MEAN_MOTION_DDOT":0},{"OBJECT_NAME":"FLOCK 4BE-6","OBJECT_ID":"2024-149BA","EPOCH":"2026-04-05T16:00:26.138016","MEAN_MOTION":15.37623676,"ECCENTRICITY":0.0004163,"INCLINATION":97.3798,"RA_OF_ASC_NODE":178.84,"ARG_OF_PERICENTER":177.5169,"MEAN_ANOMALY":182.6097,"EPHEMERIS_TYPE":0,"CLASSIFICATION_TYPE":"U","NORAD_CAT_ID":60516,"ELEMENT_SET_NO":999,"REV_AT_EPOCH":9112,"BSTAR":0.00053543,"MEAN_MOTION_DOT":0.00019722,"MEAN_MOTION_DDOT":0},{"OBJECT_NAME":"FLOCK 4BE-14","OBJECT_ID":"2024-149BB","EPOCH":"2026-04-05T04:35:04.665408","MEAN_MOTION":15.38776737,"ECCENTRICITY":0.0005086,"INCLINATION":97.3707,"RA_OF_ASC_NODE":178.4465,"ARG_OF_PERICENTER":181.1512,"MEAN_ANOMALY":178.9723,"EPHEMERIS_TYPE":0,"CLASSIFICATION_TYPE":"U","NORAD_CAT_ID":60517,"ELEMENT_SET_NO":999,"REV_AT_EPOCH":9109,"BSTAR":0.00062437184,"MEAN_MOTION_DOT":0.00023907,"MEAN_MOTION_DDOT":0},{"OBJECT_NAME":"FLOCK 4BE-1","OBJECT_ID":"2024-149BC","EPOCH":"2026-04-05T19:10:08.235552","MEAN_MOTION":15.40241899,"ECCENTRICITY":0.0004812,"INCLINATION":97.3785,"RA_OF_ASC_NODE":180.0869,"ARG_OF_PERICENTER":179.4696,"MEAN_ANOMALY":180.6556,"EPHEMERIS_TYPE":0,"CLASSIFICATION_TYPE":"U","NORAD_CAT_ID":60518,"ELEMENT_SET_NO":999,"REV_AT_EPOCH":9122,"BSTAR":0.00059837,"MEAN_MOTION_DOT":0.00024033,"MEAN_MOTION_DDOT":0},{"OBJECT_NAME":"FLOCK 4BE-28","OBJECT_ID":"2024-149BD","EPOCH":"2026-04-05T17:21:39.576672","MEAN_MOTION":15.42392988,"ECCENTRICITY":0.0004844,"INCLINATION":97.3752,"RA_OF_ASC_NODE":180.5193,"ARG_OF_PERICENTER":177.8997,"MEAN_ANOMALY":182.2272,"EPHEMERIS_TYPE":0,"CLASSIFICATION_TYPE":"U","NORAD_CAT_ID":60519,"ELEMENT_SET_NO":999,"REV_AT_EPOCH":9126,"BSTAR":0.00063091,"MEAN_MOTION_DOT":0.0002723,"MEAN_MOTION_DDOT":0},{"OBJECT_NAME":"FLOCK 4BE-35","OBJECT_ID":"2024-149CU","EPOCH":"2026-04-05T18:07:23.702880","MEAN_MOTION":15.49973647,"ECCENTRICITY":0.000576,"INCLINATION":97.374,"RA_OF_ASC_NODE":179.4902,"ARG_OF_PERICENTER":196.3232,"MEAN_ANOMALY":163.7835,"EPHEMERIS_TYPE":0,"CLASSIFICATION_TYPE":"U","NORAD_CAT_ID":60558,"ELEMENT_SET_NO":999,"REV_AT_EPOCH":9118,"BSTAR":0.0025245,"MEAN_MOTION_DOT":0.00143707,"MEAN_MOTION_DDOT":0},{"OBJECT_NAME":"FLOCK 4BE-5","OBJECT_ID":"2024-149CV","EPOCH":"2026-04-05T17:39:21.515616","MEAN_MOTION":15.38169059,"ECCENTRICITY":0.0003832,"INCLINATION":97.3849,"RA_OF_ASC_NODE":179.1557,"ARG_OF_PERICENTER":178.6051,"MEAN_ANOMALY":181.5205,"EPHEMERIS_TYPE":0,"CLASSIFICATION_TYPE":"U","NORAD_CAT_ID":60559,"ELEMENT_SET_NO":999,"REV_AT_EPOCH":9113,"BSTAR":0.00060895,"MEAN_MOTION_DOT":0.0002285,"MEAN_MOTION_DDOT":0},{"OBJECT_NAME":"FLOCK 4BE-12","OBJECT_ID":"2024-149CW","EPOCH":"2026-04-05T17:08:51.719136","MEAN_MOTION":15.54279553,"ECCENTRICITY":0.0006626,"INCLINATION":97.3694,"RA_OF_ASC_NODE":180.3109,"ARG_OF_PERICENTER":201.3413,"MEAN_ANOMALY":158.7566,"EPHEMERIS_TYPE":0,"CLASSIFICATION_TYPE":"U","NORAD_CAT_ID":60560,"ELEMENT_SET_NO":999,"REV_AT_EPOCH":9125,"BSTAR":0.0026165,"MEAN_MOTION_DOT":0.00174398,"MEAN_MOTION_DDOT":0},{"OBJECT_NAME":"FLOCK 4BE-3","OBJECT_ID":"2024-149CX","EPOCH":"2026-04-05T15:39:33.566976","MEAN_MOTION":15.39331441,"ECCENTRICITY":0.0005076,"INCLINATION":97.3704,"RA_OF_ASC_NODE":178.9926,"ARG_OF_PERICENTER":174.1996,"MEAN_ANOMALY":185.9309,"EPHEMERIS_TYPE":0,"CLASSIFICATION_TYPE":"U","NORAD_CAT_ID":60561,"ELEMENT_SET_NO":999,"REV_AT_EPOCH":9117,"BSTAR":0.00057592,"MEAN_MOTION_DOT":0.00022444,"MEAN_MOTION_DDOT":0},{"OBJECT_NAME":"FLOCK 4BE-19","OBJECT_ID":"2024-149CZ","EPOCH":"2026-04-05T17:59:30.197184","MEAN_MOTION":15.41692868,"ECCENTRICITY":0.0004743,"INCLINATION":97.3748,"RA_OF_ASC_NODE":180.3032,"ARG_OF_PERICENTER":176.6725,"MEAN_ANOMALY":183.4554,"EPHEMERIS_TYPE":0,"CLASSIFICATION_TYPE":"U","NORAD_CAT_ID":60563,"ELEMENT_SET_NO":999,"REV_AT_EPOCH":9125,"BSTAR":0.00057451,"MEAN_MOTION_DOT":0.00024207,"MEAN_MOTION_DDOT":0}]
