FLOCK 4BE-24            
1 60505U 24149AP  26095.79972160  .00025630  00000+0  63359-3 0  9993
2 60505  97.3725 179.4829 0004789 172.8121 187.3195 15.40446200 91214
TANAGER-1               
1 60507U 24149AR  26095.72617680  .00020315  00000+0  44906-3 0  9993
2 60507  97.3719 189.4725 0007310 196.1745 163.9271 15.43842616 91858
FLOCK 4BE-29            
1 60509U 24149AT  26095.80320106  .00025587  00000+0  60552-3 0  9999
2 60509  97.3811 180.7202 0003286 174.8704 185.2577 15.41775008 91251
FLOCK 4BE-2             
1 60511U 24149AV  26095.19310385  .00057162  00000+0  11695-2 0  9999
2 60511  97.3823 180.8224 0004390 178.0220 182.1048 15.45922349 91208
FLOCK 4BE-13            
1 60512U 24149AW  26095.74812610  .00019713  00000+0  49647-3 0  9998
2 60512  97.3728 179.5158 0004862 158.6692 201.4758 15.39932352 91217
FLOCK 4BE-27            
1 60513U 24149AX  26095.71346794  .00012275  00000+0  38462-3 0  9990
2 60513  97.3834 177.5976 0004095 181.8735 178.2493 15.33216802 91032
FLOCK 4BE-9             
1 60514U 24149AY  26095.75595241  .00020815  00000+0  54637-3 0  9999
2 60514  97.3800 179.4457 0003466 174.7497 185.3785 15.38657136 91170
FLOCK 4BE-6             
1 60516U 24149BA  26095.66696919  .00019722  00000+0  53543-3 0  9995
2 60516  97.3798 178.8400 0004163 177.5169 182.6097 15.37623676 91123
FLOCK 4BE-14            
1 60517U 24149BB  26095.19102622  .00023907  00000+0  62437-3 0  9999
2 60517  97.3707 178.4465 0005086 181.1512 178.9723 15.38776737 91097
FLOCK 4BE-1             
1 60518U 24149BC  26095.79870643  .00024033  00000+0  59837-3 0  9992
2 60518  97.3785 180.0869 0004812 179.4696 180.6556 15.40241899 91228
FLOCK 4BE-28            
1 60519U 24149BD  26095.72337473  .00027230  00000+0  63091-3 0  9994
2 60519  97.3752 180.5193 0004844 177.8997 182.2272 15.42392988 91264
FLOCK 4BE-35            
1 60558U 24149CU  26095.75513545  .00143707  00000+0  25245-2 0  9992
2 60558  97.3740 179.4902 0005760 196.3232 163.7835 15.49973647 91189
FLOCK 4BE-5             
1 60559U 24149CV  26095.73566569  .00022850  00000+0  60895-3 0  9991
2 60559  97.3849 179.1557 0003832 178.6051 181.5205 15.38169059 91139
FLOCK 4BE-12            
1 60560U 24149CW  26095.71448749  .00174398  00000+0  26165-2 0  9996
2 60560  97.3694 180.3109 0006626 201.3413 158.7566 15.54279553 91254
FLOCK 4BE-3             
1 60561U 24149CX  26095.65247184  .00022444  00000+0  57592-3 0  9993
2 60561  97.3704 178.9926 0005076 174.1996 185.9309 15.39331441 91174
FLOCK 4BE-19            
1 60563U 24149CZ  26095.74965506  .00024207  00000+0  57451-3 0  9993
2 60563  97.3748 180.3032 0004743 176.6725 183.4554 15.41692868 91256
